NORAD_CAT_ID,OBJECT_NAME,OBJECT_TYPE,EPOCH,MEAN_MOTION,ECCENTRICITY,INCLINATION,RA_OF_ASC_NODE,ARG_OF_PERICENTER,MEAN_ANOMALY,BSTAR,MEAN_MOTION_DOT,MEAN_MOTION_DDOT,TLE_LINE0,TLE_LINE1,TLE_LINE2,SEMIMAJOR_AXIS,PERIOD,APOGEE,PERIGEE,DECAYED
55923.0,STARLINK-5854,PAYLOAD,2024-08-10 12:39:40,14.98329321,0.0002595,70.0025,317.1687,251.3364,108.7513,0.00011383,1.265e-05,0.0,0 STARLINK-5854,1 55923U 23037K   24223.52754780  .00001265  00000-0  11383-3 0  9993,2 55923  70.0025 317.1687 0002595 251.3364 108.7513 14.98329321 77526,6950.195,96.107,573.864,570.256,0.0
55923.0,STARLINK-5854,PAYLOAD,2024-08-10 14:15:48,14.98329048,0.000249,70.003,317.0014,246.109,113.9809,0.0001134,1.26e-05,0.0,0 STARLINK-5854,1 55923U 23037K   24223.59430796  .00001260  00000-0  11340-3 0  9996,2 55923  70.0030 317.0014 0002490 246.1090 113.9809 14.98329048 77192,6950.196,96.107,573.791,570.33,0.0
55923.0,STARLINK-5854,PAYLOAD,2024-08-10 15:51:56,14.98330336,0.0002483,70.0031,316.8333,245.5023,114.5877,0.00013417,1.508e-05,0.0,0 STARLINK-5854,1 55923U 23037K   24223.66106642  .00001508  00000-0  13417-3 0  9996,2 55923  70.0031 316.8333 0002483 245.5023 114.5877 14.98330336 77201,6950.192,96.107,573.783,570.331,0.0
55923.0,STARLINK-5854,PAYLOAD,2024-08-10 23:52:37,14.98323955,0.0002743,70.0017,315.9897,268.7997,91.2848,-8.1135e-05,-1.061e-05,0.0,0 STARLINK-5854,1 55923U 23037K   24223.99487638 -.00001061  00000-0 -81135-4 0  9998,2 55923  70.0017 315.9897 0002743 268.7997  91.2848 14.98323955 77596,6950.212,96.107,573.983,570.17,0.0
55923.0,STARLINK-5854,PAYLOAD,2024-08-11 12:41:41,14.9832766,0.0003041,70.0003,314.6401,260.2815,99.8,-5.9732e-05,-8.06e-06,0.0,0 STARLINK-5854,1 55923U 23037K   24224.52895495 -.00000806  00000-0 -59732-4 0  9996,2 55923  70.0003 314.6401 0003041 260.2815  99.8000 14.98327660 77339,6950.2,96.107,574.179,569.952,0.0
55923.0,STARLINK-5854,PAYLOAD,2024-08-11 23:54:37,14.98332889,0.0003307,69.9996,313.463,265.4397,94.6384,0.00028678,3.331e-05,0.0,0 STARLINK-5854,1 55923U 23037K   24224.99626412  .00003331  00000-0  28678-3 0  9996,2 55923  69.9996 313.4630 0003307 265.4397  94.6384 14.98332889 77747,6950.184,96.107,574.347,569.751,0.0
55923.0,STARLINK-5854,PAYLOAD,2024-08-12 12:43:39,14.98356846,0.0003317,70.0003,312.1201,269.1075,90.9704,0.0003594,4.201e-05,0.0,0 STARLINK-5854,1 55923U 23037K   24225.53032404  .00004201  00000-0  35940-3 0  9996,2 55923  70.0003 312.1201 0003317 269.1075  90.9704 14.98356846 77827,6950.11,96.105,574.28,569.67,0.0
55923.0,STARLINK-5854,PAYLOAD,2024-08-13 04:45:02,14.98331377,0.0003698,70.0017,310.4328,276.1152,83.9586,0.00014657,1.656e-05,0.0,0 STARLINK-5854,1 55923U 23037K   24226.19794256  .00001656  00000-0  14657-3 0  9992,2 55923  70.0017 310.4328 0003698 276.1152  83.9586 14.98331377 77922,6950.189,96.107,574.624,569.483,0.0
55923.0,STARLINK-5854,PAYLOAD,2024-08-13 12:45:43,14.9831976,0.000337,69.9991,309.5903,274.5383,85.5391,-0.00023616,-2.909e-05,0.0,0 STARLINK-5854,1 55923U 23037K   24226.53174854 -.00002909  00000-0 -23616-3 0  9995,2 55923  69.9991 309.5903 0003370 274.5383  85.5391 14.98319760 77972,6950.225,96.108,574.432,569.747,0.0
55923.0,STARLINK-5854,PAYLOAD,2024-08-13 22:22:31,14.98320509,0.0002808,70.0009,308.5813,272.2662,87.8176,-0.00027153,-3.33e-05,0.0,0 STARLINK-5854,1 55923U 23037K   24226.93231013 -.00003330  00000-0 -27153-3 0  9999,2 55923  70.0009 308.5813 0002808 272.2662  87.8176 14.98320509 77692,6950.222,96.108,574.039,570.136,0.0
55923.0,STARLINK-5854,PAYLOAD,2024-08-14 12:47:44,14.98319765,0.0002521,70.0018,307.0679,267.8224,92.2646,-0.0002702,-3.314e-05,0.0,0 STARLINK-5854,1 55923U 23037K   24227.53315521 -.00003314  00000-0 -27020-3 0  9998,2 55923  70.0018 307.0679 0002521 267.8224  92.2646 14.98319765 78125,6950.225,96.108,573.842,570.337,0.0
55923.0,STARLINK-5854,PAYLOAD,2024-08-14 14:23:52,14.98320308,0.0002521,70.0018,306.8996,268.0309,92.0561,-0.00023927,-2.946e-05,0.0,0 STARLINK-5854,1 55923U 23037K   24227.59991544 -.00002946  00000-0 -23927-3 0  9991,2 55923  70.0018 306.8996 0002521 268.0309  92.0561 14.98320308 77792,6950.223,96.108,573.84,570.336,0.0
55923.0,STARLINK-5854,PAYLOAD,2024-08-14 22:24:31,14.98350133,0.0002461,70.0019,306.058,265.7988,94.289,-0.00098528,-0.00011835,0.0,0 STARLINK-5854,1 55923U 23037K   24227.93369897 -.00011835  00000-0 -98528-3 0  9995,2 55923  70.0019 306.0580 0002461 265.7988  94.2890 14.98350133 77848,6950.131,96.106,573.706,570.285,0.0
55923.0,STARLINK-5854,PAYLOAD,2024-08-15 11:13:37,14.98336037,0.0002572,70.0017,304.7114,265.208,94.8785,0.00069998,8.27e-05,0.0,0 STARLINK-5854,1 55923U 23037K   24228.46779621  .00008270  00000-0  69998-3 0  9990,2 55923  70.0017 304.7114 0002572 265.2080  94.8785 14.98336037 77920,6950.174,96.107,573.827,570.252,0.0
55923.0,STARLINK-5854,PAYLOAD,2024-08-15 22:26:33,14.98340171,0.0002957,70.0008,303.5327,268.3997,91.6823,0.00049292,5.795e-05,0.0,0 STARLINK-5854,1 55923U 23037K   24228.93511258  .00005795  00000-0  49292-3 0  9996,2 55923  70.0008 303.5327 0002957 268.3997  91.6823 14.98340171 77990,6950.161,96.106,574.082,569.971,0.0
55923.0,STARLINK-5854,PAYLOAD,2024-08-16 09:39:30,14.98330191,0.0002662,70.0016,302.3556,268.6817,91.4037,0.00025031,2.895e-05,0.0,0 STARLINK-5854,1 55923U 23037K   24229.40243718  .00002895  00000-0  25031-3 0  9995,2 55923  70.0016 302.3556 0002662 268.6817  91.4037 14.98330191 78400,6950.192,96.107,573.907,570.207,0.0
55923.0,STARLINK-5854,PAYLOAD,2024-08-17 08:05:22,14.98342094,0.0002768,70.0015,299.9995,268.9434,91.1408,0.00012728,1.426e-05,0.0,0 STARLINK-5854,1 55923U 23037K   24230.33706706  .00001426  00000-0  12728-3 0  9998,2 55923  70.0015 299.9995 0002768 268.9434  91.1408 14.98342094 78541,6950.155,96.106,573.944,570.097,0.0
55923.0,STARLINK-5854,PAYLOAD,2024-08-18 04:55:07,14.98336523,0.0002819,70.0012,297.81,270.0501,90.0335,0.00015802,1.793e-05,0.0,0 STARLINK-5854,1 55923U 23037K   24231.20494658  .00001793  00000-0  15802-3 0  9998,2 55923  70.0012 297.8100 0002819 270.0501  90.0335 14.98336523 78670,6950.173,96.107,573.997,570.078,0.0
55923.0,STARLINK-5854,PAYLOAD,2024-08-18 14:31:55,14.98336859,0.0002791,70.0014,296.8015,265.9146,94.1694,8.093e-05,8.73e-06,0.0,0 STARLINK-5854,1 55923U 23037K   24231.60550437  .00000873  00000-0  80930-4 0  9993,2 55923  70.0014 296.8015 0002791 265.9146  94.1694 14.98336859 78397,6950.172,96.107,573.976,570.097,0.0
55923.0,STARLINK-5854,PAYLOAD,2024-08-19 04:57:08,14.98334852,0.0002652,70.0003,295.2869,263.6346,96.4511,9.4641e-05,1.037e-05,0.0,0 STARLINK-5854,1 55923U 23037K   24232.20634418  .00001037  00000-0  94641-4 0  9999,2 55923  70.0003 295.2869 0002652 263.6346  96.4511 14.98334852 78820,6950.178,96.107,573.886,570.2,0.0
55923.0,STARLINK-5854,PAYLOAD,2024-08-19 09:45:31,14.98339526,0.000248,70.0008,294.7817,261.1068,98.9811,0.0001341,1.508e-05,0.0,0 STARLINK-5854,1 55923U 23037K   24232.40661944  .00001508  00000-0  13410-3 0  9992,2 55923  70.0008 294.7817 0002480 261.1068  98.9811 14.98339526 78514,6950.163,96.106,573.752,570.305,0.0
55923.0,STARLINK-5854,PAYLOAD,2024-08-20 04:59:08,14.9833377,0.0002421,70.0009,292.762,262.1949,97.8936,0.00011383,1.266e-05,0.0,0 STARLINK-5854,1 55923U 23037K   24233.20774127  .00001266  00000-0  11383-3 0  9997,2 55923  70.0009 292.7620 0002421 262.1949  97.8936 14.98333770 78970,6950.181,96.107,573.729,570.364,0.0
55923.0,STARLINK-5854,PAYLOAD,2024-08-20 12:59:49,14.98324755,0.0002572,70.0004,291.9203,258.8839,101.2031,-2.0681e-05,-3.4e-06,0.0,0 STARLINK-5854,1 55923U 23037K   24233.54154904 -.00000340  00000-0 -20681-4 0  9995,2 55923  70.0004 291.9203 0002572 258.8839 101.2031 14.98324755 79026,6950.209,96.107,573.862,570.287,0.0
55923.0,STARLINK-5854,PAYLOAD,2024-08-21 13:01:50,14.98334291,0.0002975,69.9992,289.3938,268.8533,91.2285,-2.6191e-05,-4.06e-06,0.0,0 STARLINK-5854,1 55923U 23037K   24234.54294247 -.00000406  00000-0 -26191-4 0  9996,2 55923  69.9992 289.3938 0002975 268.8533  91.2285 14.98334291 79175,6950.18,96.107,574.112,569.977,0.0
55923.0,STARLINK-5854,PAYLOAD,2024-08-21 21:02:30,14.98328184,0.0003062,69.9986,288.5512,269.412,90.6689,8.3272e-06,6e-08,0.0,0 STARLINK-5854,1 55923U 23037K   24234.87674498  .00000006  00000-0  83272-5 0  9990,2 55923  69.9986 288.5512 0003062 269.4120  90.6689 14.98328184 78886,6950.199,96.107,574.192,569.935,0.0
